{
  "type": "FeatureCollection",
  "features": [
    {
      "type": "Feature",
      "properties": {
        "name": "Campus Center Women's Restroom",
        "amenity": "toilets",
        "gender": "female",
        "image": "https://via.placeholder.com/400x250?text=Campus+Center+Women's+Restroom"
      },
      "geometry": {
        "type": "Point",
        "coordinates": [-74.17804891730285, 40.7430159766256]
      }
    },
    {
      "type": "Feature",
      "properties": {
        "name": "Campus Center Men's Restroom",
        "amenity": "toilets",
        "gender": "male",
        "image": "https://via.placeholder.com/400x250?text=Campus+Center+Men's+Restroom"
      },
      "geometry": {
        "type": "Point",
        "coordinates": [-74.17799319004237, 40.74309914004893]
      }
    },
    {
      "type": "Feature",
      "properties": {
        "name": "Faculty Memorial Hall Women's Restroom",
        "amenity": "toilets",
        "gender": "female",
        "image": "https://via.placeholder.com/400x250?text=FMH+Women's+Restroom"
      },
      "geometry": {
        "type": "Point",
        "coordinates": [-74.17904765478941, 40.74203141814198]
      }
    },
    {
      "type": "Feature",
      "properties": {
        "name": "Faculty Memorial Hall Men's Restroom",
        "amenity": "toilets",
        "gender": "male",
        "image": "https://via.placeholder.com/400x250?text=FMH+Men's+Restroom"
      },
      "geometry": {
        "type": "Point",
        "coordinates": [-74.17856228542894, 40.74179629657664]
      }
    },
    {
      "type": "Feature",
      "properties": {
        "name": "Faculty Memorial Hall All-Gender Restroom",
        "amenity": "toilets",
        "image": "https://via.placeholder.com/400x250?text=FMH+All-Gender+Restroom"
      },
      "geometry": {
        "type": "Point",
        "coordinates": [-74.1790308251933, 40.74206797111608]
      }
    },
    {
      "type": "Feature",
      "properties": {
        "name": "Tiernan Hall Women's Restroom",
        "amenity": "toilets",
        "gender": "female",
        "image": "https://via.placeholder.com/400x250?text=Tiernan+Hall+Women's+Restroom"
      },
      "geometry": {
        "type": "Point",
        "coordinates": [-74.17944957720216, 40.742199247677654]
      }
    },
    {
      "type": "Feature",
      "properties": {
        "name": "Tiernan Hall Men's Restroom",
        "amenity": "toilets",
        "gender": "male",
        "image": "https://via.placeholder.com/400x250?text=Tiernan+Hall+Men's+Restroom"
      },
      "geometry": {
        "type": "Point",
        "coordinates": [-74.1795568655563, 40.74221652125596]
      }
    },
    {
      "type": "Feature",
      "properties": {
        "name": "ECE Building Women's Restroom",
        "amenity": "toilets",
        "gender": "female",
        "image": "https://via.placeholder.com/400x250?text=ECE+Women's+Restroom"
      },
      "geometry": {
        "type": "Point",
        "coordinates": [-74.17862457788208, 40.74145388831046]
      }
    },
    {
      "type": "Feature",
      "properties": {
        "name": "ECE Building Men's Restroom",
        "amenity": "toilets",
        "gender": "male",
        "image": "https://via.placeholder.com/400x250?text=ECE+Men's+Restroom"
      },
      "geometry": {
        "type": "Point",
        "coordinates": [-74.1786897099707, 40.741377622970724]
      }
    },
    {
      "type": "Feature",
      "properties": {
        "name": "Robert W. Van Houten Library Women's Restroom",
        "amenity": "toilets",
        "gender": "female",
        "image": "https://via.placeholder.com/400x250?text=Robert+W.+Van+Houten+Library+Women's+Restroom"
      },
      "geometry": {
        "type": "Point",
        "coordinates": [-74.17788877440331, 40.74369847214831]
      }
    },
    {
      "type": "Feature",
      "properties": {
        "name": "Robert W. Van Houten Library Men's Restroom",
        "amenity": "toilets",
        "gender": "male",
        "image": "https://via.placeholder.com/400x250?text=Robert+W.+Van+Houten+Library+Men's+Restroom"
      },
      "geometry": {
        "type": "Point",
        "coordinates": [-74.17781749669952, 40.74379198880098]
      }
    },
    {
      "type": "Feature",
      "properties": {
        "name": "Mechanical Engineering Center Women's Restroom",
        "amenity": "toilets",
        "gender": "female",
        "image": "https://via.placeholder.com/400x250?text=Mechanical+Engineering+Center+Women's+Restroom"
      },
      "geometry": {
        "type": "Point",
        "coordinates": [-74.17859010456078, 40.74420662724747]
      }
    },
    {
      "type": "Feature",
      "properties": {
        "name": "Mechanical Engineering Center Men's Restroom",
        "amenity": "toilets",
        "gender": "male",
        "image": "https://via.placeholder.com/400x250?text=Mechanical+Engineering+Center+Men's+Restroom"
      },
      "geometry": {
        "type": "Point",
        "coordinates": [-74.17862520239768, 40.74418003603217]
      }
    },
    {
      "type": "Feature",
      "properties": {
        "name": "Central King Building Basement Women's Restroom",
        "amenity": "toilets",
        "gender": "female",
        "image": "https://via.placeholder.com/400x250?text=Central+King+Building+Basement+Women's+Restroom"
      },
      "geometry": {
        "type": "Point",
        "coordinates": [-74.1772965085266, 40.741806530213225]
      }
    },
    {
      "type": "Feature",
      "properties": {
        "name": "Central King Building Basement Men's Restroom",
        "amenity": "toilets",
        "gender": "male",
        "image": "https://via.placeholder.com/400x250?text=Central+King+Building+Basement+Men's+Restroom"
      },
      "geometry": {
        "type": "Point",
        "coordinates": [-74.17730750094834, 40.74184632192463]
      }
    },
    {
      "type": "Feature",
      "properties": {
        "name": "Central King Building 1st-3rd Floor Women's Restroom",
        "amenity": "toilets",
        "gender": "female",
        "image": "https://via.placeholder.com/400x250?text=Central+King+Building+1st-3rd+Floor+Women's+Restroom"
      },
      "geometry": {
        "type": "Point",
        "coordinates": [-74.17752876961586, 40.74193751944904]
      }
    },
    {
      "type": "Feature",
      "properties": {
        "name": "Central King Building 1st-3rd Floor Men's Restroom",
        "amenity": "toilets",
        "gender": "male",
        "image": "https://via.placeholder.com/400x250?text=Central+King+Building+1st-3rd+Floor+Men's+Restroom"
      },
      "geometry": {
        "type": "Point",
        "coordinates": [-74.1774911264611, 40.74197481560094]
      }
    },
    {
      "type": "Feature",
      "properties": {
        "name": "Makerspace All-Gender Restroom",
        "amenity": "toilets",
        "gender": "all",
        "image": "https://via.placeholder.com/400x250?text=Makerspace+All-Gender+Restroom"
      },
      "geometry": {
        "type": "Point",
        "coordinates": [-74.17897806116697, 40.744044279077315]
      }
    },
    {
      "type": "Feature",
      "properties": {
        "name": "NJIT West Parking Deck",
        "amenity": "parking",
        "image": "https://via.placeholder.com/400x250?text=NJIT+West+Parking+Deck"
      },
      "geometry": {
        "type": "Point",
        "coordinates": [-74.18205385550274, 40.743319828864514]
      }
    },
    {
      "type": "Feature",
      "properties": {
        "name": "249 Warren St Parking",
        "amenity": "parking",
        "image": "https://via.placeholder.com/400x250?text=249+Warren+St+Parking"
      },
      "geometry": {
        "type": "Point",
        "coordinates": [-74.18393780201909, 40.743314974349474]
      }
    },
    {
      "type": "Feature",
      "properties": {
        "name": "Lot 3",
        "amenity": "parking",
        "image": "https://via.placeholder.com/400x250?text=Lot+3"
      },
      "geometry": {
        "type": "Point",
        "coordinates": [-74.17796379424192, 40.74045366870485]
      }
    },
    {
      "type": "Feature",
      "properties": {
        "name": "Lot 5",
        "amenity": "parking",
        "image": "https://via.placeholder.com/400x250?text=Lot+5"
      },
      "geometry": {
        "type": "Point",
        "coordinates": [-74.17917199532151, 40.741575699838826]
      }
    },
    {
      "type": "Feature",
      "properties": {
        "name": "Lot 7",
        "amenity": "parking",
        "image": "https://via.placeholder.com/400x250?text=Lot+7"
      },
      "geometry": {
        "type": "Point",
        "coordinates": [-74.1775483677129, 40.74360241251276]
      }
    },
    {
      "type": "Feature",
      "properties": {
        "name": "NJIT Parking Lot 16",
        "amenity": "parking",
        "image": "https://via.placeholder.com/400x250?text=NJIT+Parking+Lot+16"
      },
      "geometry": {
        "type": "Point",
        "coordinates": [-74.1817968013533, 40.74408405216255]
      }
    },
    {
      "type": "Feature",
      "properties": {
        "name": "NJIT Parking Deck",
        "amenity": "parking",
        "image": "https://via.placeholder.com/400x250?text=NJIT+Parking+Deck"
      },
      "geometry": {
        "type": "Point",
        "coordinates": [-74.17843069050636, 40.7402141104446]
      }
    },
    {
      "type": "Feature",
      "properties": {
        "name": "Essex County College Parking Lot",
        "amenity": "parking",
        "image": "https://via.placeholder.com/400x250?text=Essex+County+College+Parking+Lot"
      },
      "geometry": {
        "type": "Point",
        "coordinates": [-74.1808666659123, 40.73991866485187]
      }
    },
    {
      "type": "Feature",
      "properties": {
        "name": "Essex County College Parking Deck",
        "amenity": "parking",
        "image": "https://via.placeholder.com/400x250?text=Essex+County+College+Parking+Deck"
      },
      "geometry": {
        "type": "Point",
        "coordinates": [-74.18084586094373, 40.739918794346146]
      }
    },
    {
      "type": "Feature",
      "properties": {
        "name": "Eberhardt Hall",
        "category": "building",
        "code": "EBER",
        "image": "https://via.placeholder.com/400x250?text=Eberhardt+Hall",
        "entrances": [
          { "type": "Point", "coordinates": [-74.17693518470841, 40.742865939792], "floor": null, "label": "entrance 1" }
        ]
      },
      "geometry": {
        "type": "Point",
        "coordinates": [-74.17690553992043, 40.74285401990941]
      }
    },
    {
      "type": "Feature",
      "properties": {
        "name": "Campus Center",
        "category": "building",
        "code": "CTR",
        "image": "https://via.placeholder.com/400x250?text=Campus+Center",
        "entrances": [
          { "type": "Point", "coordinates": [-74.17865973212787, 40.74295140268298], "floor": null, "label": "entrance 1" },
          { "type": "Point", "coordinates": [-74.1779699131785, 40.74276239807465], "floor": null, "label": "entrance 2" }
        ]
      },
      "geometry": {
        "type": "Point",
        "coordinates": [-74.17839274838578, 40.74305716282688]
      }
    },
    {
      "type": "Feature",
      "properties": {
        "name": "Cullimore Hall",
        "category": "building",
        "code": "CULM",
        "image": "https://via.placeholder.com/400x250?text=Cullimore+Hall",
        "entrances": [
          { "type": "Point", "coordinates": [-74.177442787346, 40.7430450830275], "floor": null, "label": "entrance 1" }
        ]
      },
      "geometry": {
        "type": "Point",
        "coordinates": [-74.17730583579504, 40.74293215225468]
      }
    },
    {
      "type": "Feature",
      "properties": {
        "name": "ECE Building",
        "category": "building",
        "code": "ECEC",
        "image": "https://via.placeholder.com/400x250?text=ECE+Building",
        "entrances": [
          {
            "type": "Point",
            "coordinates": [-74.17876435736274, 40.74141297826167],
            "floor": null,
            "label": "main entrance"
          }
        ]
      },
      "geometry": {
        "type": "Point",
        "coordinates": [-74.17876435736274, 40.74141297826167]
      }
    },
    {
      "type": "Feature",
      "properties": {
        "name": "Greek Village",
        "category": "building",
        "code": "GRB",
        "image": "https://via.placeholder.com/400x250?text=Greek+Village",
        "entrances": [
          {
            "type": "Point",
            "coordinates": [-74.18054034715016, 40.74102290039694],
            "floor": null,
            "label": "main entrance"
          }
        ]
      },
      "geometry": {
        "type": "Point",
        "coordinates": [-74.18054034715016, 40.74102290039694]
      }
    },
    {
      "type": "Feature",
      "properties": {
        "name": "Kupfrian Hall",
        "category": "building",
        "code": "KUPF",
        "image": "https://via.placeholder.com/400x250?text=Kupfrian+Hall",
        "entrances": [
          { "type": "Point", "coordinates": [-74.17877904044232, 40.74243533664731], "floor": null, "label": "entrance 1" },
          { "type": "Point", "coordinates": [-74.17848619278395, 40.74271309242552], "floor": null, "label": "entrance 2" }
        ]
      },
      "geometry": {
        "type": "Point",
        "coordinates": [-74.17849122719646, 40.74253420362278]
      }
    },
    {
      "type": "Feature",
      "properties": {
        "name": "Makerspace",
        "category": "building",
        "code": "MAKER",
        "image": "https://via.placeholder.com/400x250?text=Makerspace",
        "entrances": [
          { "type": "Point", "coordinates": [-74.17953126129576, 40.74406456477195], "floor": null, "label": "main entrance" }
        ]
      },
      "geometry": {
        "type": "Point",
        "coordinates": [-74.17943222189625, 40.74413522805793]
      }
    },
    {
      "type": "Feature",
      "properties": {
        "name": "Wellness Center",
        "category": "building",
        "code": "WEC",
        "image": "https://via.placeholder.com/400x250?text=Wellness+Center",
        "entrances": [
          {
            "type": "Point",
            "coordinates": [-74.18043957683709, 40.742355477483784],
            "floor": null,
            "label": "main entrance"
          }
        ]
      },
      "geometry": {
        "type": "Point",
        "coordinates": [-74.18043957683709, 40.742355477483784]
      }
    },    {
      "type": "Feature",
      "properties": {
        "name": "Fenster Hall",
        "category": "building",
        "code": "FENS",
        "image": "https://via.placeholder.com/400x250?text=Fenster+Hall",
        "entrances": [
          { "type": "Point", "coordinates": [-74.17754257244988, 40.74262434218685], "floor": null, "label": "entrance 1" }
        ]
      },
      "geometry": {
        "type": "Point",
        "coordinates": [-74.17695832114396, 40.74250325491228]
      }
    },    {
      "type": "Feature",
      "properties": {
        "name": "Tiernan Hall",
        "category": "building",
        "code": "TIER",
        "image": "https://via.placeholder.com/400x250?text=Tiernan+Hall",
        "entrances": [
          { "type": "Point", "coordinates": [-74.17925627372436, 40.74195378097202], "floor": null, "label": "entrance 1" },
          { "type": "Point", "coordinates": [-74.17919770419269, 40.74213128312493], "floor": null, "label": "entrance 2" },
          { "type": "Point", "coordinates": [-74.17952309047979, 40.74176970416499], "floor": null, "label": "entrance 3" }
        ]
      },
      "geometry": {
        "type": "Point",
        "coordinates": [-74.17945040466692, 40.74175770088645]
      }
    },
    {
      "type": "Feature",
      "properties": {
        "name": "Faculty Memorial Hall",
        "category": "building",
        "code": "FMH",
        "image": "https://via.placeholder.com/400x250?text=Faculty+Memorial+Hall",
        "entrances": [
          { "type": "Point", "coordinates": [-74.17860333186778, 40.74168917039875], "floor": null, "label": "entrance 1" },
          { "type": "Point", "coordinates": [-74.17911744220139, 40.74183051530639], "floor": null, "label": "entrance 2" },
          { "type": "Point", "coordinates": [-74.17896993374892, 40.74209676885414], "floor": null, "label": "entrance 3" },
          { "type": "Point", "coordinates": [-74.17851222370508, 40.74196035513391], "floor": null, "label": "entrance 4" }
        ]
      },
      "geometry": {
        "type": "Point",
        "coordinates": [-74.17869765832067, 40.74192193983928]
      }
    },
    {
      "type": "Feature",
      "properties": {
        "name": "Central King Building",
        "category": "building",
        "code": "CKB",
        "image": "https://via.placeholder.com/400x250?text=Central+King+Building",
        "entrances": [
          { "type": "Point", "coordinates": [-74.17788589719163, 40.74217495426585], "floor": null, "label": "entrance 1" },
          { "type": "Point", "coordinates": [-74.17741634761646, 40.74222261536282], "floor": null, "label": "entrance 2" },
          { "type": "Point", "coordinates": [-74.17694904470113, 40.741844730008694], "floor": null, "label": "entrance 3" }
        ]
      },
      "geometry": {
        "type": "Point",
        "coordinates": [-74.1775609566086, 40.74211277890102]
      }
    },
    {
      "type": "Feature",
      "properties": {
        "name": "Robert W. Van Houten Library",
        "category": "building",
        "code": "LIB",
        "image": "https://via.placeholder.com/400x250?text=Robert+W.+Van+Houten+Library",
        "entrances": [
          { "type": "Point", "coordinates": [-74.17827330530123, 40.74387354436952], "floor": null, "label": "main entrance" }
        ]
      },
      "geometry": {
        "type": "Point",
        "coordinates": [-74.17794817036413, 40.74378003351004]
      }
    },
    {
      "type": "Feature",
      "properties": {
        "name": "Elevator 1",
        "amenity": "elevator",
        "image": "https://via.placeholder.com/400x250?text=Elevator+1"
      },
      "geometry": {
        "type": "Point",
        "coordinates": [-74.1803141870905, 40.742341055864]
      }
    },
    {
      "type": "Feature",
      "properties": {
        "name": "Elevator 2",
        "amenity": "elevator",
        "image": "https://via.placeholder.com/400x250?text=Elevator+2"
      },
      "geometry": {
        "type": "Point",
        "coordinates": [-74.17947216576324, 40.74220208504062]
      }
    },
    {
      "type": "Feature",
      "properties": {
        "name": "Elevator 3",
        "amenity": "elevator",
        "image": "https://via.placeholder.com/400x250?text=Elevator+3"
      },
      "geometry": {
        "type": "Point",
        "coordinates": [-74.1790975444705, 40.74195373047082]
      }
    },
    {
      "type": "Feature",
      "properties": {
        "name": "Elevator 4",
        "amenity": "elevator",
        "image": "https://via.placeholder.com/400x250?text=Elevator+4"
      },
      "geometry": {
        "type": "Point",
        "coordinates": [-74.1785564248254, 40.741811813157426]
      }
    },
    {
      "type": "Feature",
      "properties": {
        "name": "Elevator 5",
        "amenity": "elevator",
        "image": "https://via.placeholder.com/400x250?text=Elevator+5"
      },
      "geometry": {
        "type": "Point",
        "coordinates": [-74.17782279144635, 40.7421863165232]
      }
    },
    {
      "type": "Feature",
      "properties": {
        "name": "Elevator 6",
        "amenity": "elevator",
        "image": "https://via.placeholder.com/400x250?text=Elevator+6"
      },
      "geometry": {
        "type": "Point",
        "coordinates": [-74.17806473434675, 40.742799314867746]
      }
    },
    {
      "type": "Feature",
      "properties": {
        "name": "Elevator 7",
        "amenity": "elevator",
        "image": "https://via.placeholder.com/400x250?text=Elevator+7"
      },
      "geometry": {
        "type": "Point",
        "coordinates": [-74.17788522827657, 40.743816367171895]
      }
    },
    {
      "type": "Feature",
      "properties": {
        "name": "Elevator 8",
        "amenity": "elevator",
        "image": "https://via.placeholder.com/400x250?text=Elevator+8"
      },
      "geometry": {
        "type": "Point",
        "coordinates": [-74.17721923482692, 40.74311271055131]
      }
    },
    {
      "type": "Feature",
      "properties": {
        "name": "Elevator 9",
        "amenity": "elevator",
        "image": "https://via.placeholder.com/400x250?text=Elevator+9"
      },
      "geometry": {
        "type": "Point",
        "coordinates": [-74.17863967398546, 40.74146490288614]
      }
    }
  ]
}
